[{"OBJECT_NAME":"ES'HAIL 2","OBJECT_ID":"2018-090A","EPOCH":"2026-03-03T03:13:38.772192","MEAN_MOTION":1.00270941,"ECCENTRICITY":0.0002568,"INCLINATION":0.0228,"RA_OF_ASC_NODE":237.9498,"ARG_OF_PERICENTER":135.7171,"MEAN_ANOMALY":221.4238,"EPHEMERIS_TYPE":0,"CLASSIFICATION_TYPE":"U","NORAD_CAT_ID":43700,"ELEMENT_SET_NO":999,"REV_AT_EPOCH":2661,"BSTAR":0,"MEAN_MOTION_DOT":1.28e-6,"MEAN_MOTION_DDOT":0},{"OBJECT_NAME":"GEO-KOMPSAT-2A","OBJECT_ID":"2018-100A","EPOCH":"2026-03-01T23:19:22.738080","MEAN_MOTION":1.00270368,"ECCENTRICITY":0.0001336,"INCLINATION":0.018,"RA_OF_ASC_NODE":67.6811,"ARG_OF_PERICENTER":333.425,"MEAN_ANOMALY":236.7399,"EPHEMERIS_TYPE":0,"CLASSIFICATION_TYPE":"U","NORAD_CAT_ID":43823,"ELEMENT_SET_NO":999,"REV_AT_EPOCH":2655,"BSTAR":0,"MEAN_MOTION_DOT":-3.62e-6,"MEAN_MOTION_DDOT":0},{"OBJECT_NAME":"GSAT-11","OBJECT_ID":"2018-100B","EPOCH":"2026-03-03T01:17:21.750144","MEAN_MOTION":1.00271634,"ECCENTRICITY":0.0004856,"INCLINATION":0.0891,"RA_OF_ASC_NODE":271.2042,"ARG_OF_PERICENTER":143.6178,"MEAN_ANOMALY":199.3202,"EPHEMERIS_TYPE":0,"CLASSIFICATION_TYPE":"U","NORAD_CAT_ID":43824,"ELEMENT_SET_NO":999,"REV_AT_EPOCH":2641,"BSTAR":0,"MEAN_MOTION_DOT":-9.3e-7,"MEAN_MOTION_DDOT":0},{"OBJECT_NAME":"GSAT-7A","OBJECT_ID":"2018-105A","EPOCH":"2026-03-03T02:23:34.653696","MEAN_MOTION":1.00270676,"ECCENTRICITY":0.0002058,"INCLINATION":0.1022,"RA_OF_ASC_NODE":277.3886,"ARG_OF_PERICENTER":50.3496,"MEAN_ANOMALY":291.7517,"EPHEMERIS_TYPE":0,"CLASSIFICATION_TYPE":"U","NORAD_CAT_ID":43864,"ELEMENT_SET_NO":999,"REV_AT_EPOCH":2638,"BSTAR":0,"MEAN_MOTION_DOT":1.1e-7,"MEAN_MOTION_DDOT":0},{"OBJECT_NAME":"COSMOS 2533","OBJECT_ID":"2018-107A","EPOCH":"2026-03-02T04:32:38.626944","MEAN_MOTION":1.00268392,"ECCENTRICITY":6.3e-5,"INCLINATION":0.0195,"RA_OF_ASC_NODE":114.5866,"ARG_OF_PERICENTER":341.1778,"MEAN_ANOMALY":202.3414,"EPHEMERIS_TYPE":0,"CLASSIFICATION_TYPE":"U","NORAD_CAT_ID":43867,"ELEMENT_SET_NO":999,"REV_AT_EPOCH":2636,"BSTAR":0,"MEAN_MOTION_DOT":-5.5e-7,"MEAN_MOTION_DDOT":0},{"OBJECT_NAME":"TJS-3","OBJECT_ID":"2018-110A","EPOCH":"2026-03-02T02:32:41.702208","MEAN_MOTION":1.00349757,"ECCENTRICITY":0.0016635,"INCLINATION":2.2688,"RA_OF_ASC_NODE":81.817,"ARG_OF_PERICENTER":344.8419,"MEAN_ANOMALY":217.635,"EPHEMERIS_TYPE":0,"CLASSIFICATION_TYPE":"U","NORAD_CAT_ID":43874,"ELEMENT_SET_NO":999,"REV_AT_EPOCH":2634,"BSTAR":0,"MEAN_MOTION_DOT":-2.29e-6,"MEAN_MOTION_DDOT":0},{"OBJECT_NAME":"ZHONGXING-2D","OBJECT_ID":"2019-001A","EPOCH":"2026-03-03T01:00:00.308736","MEAN_MOTION":1.0027235,"ECCENTRICITY":0.000127,"INCLINATION":0.0554,"RA_OF_ASC_NODE":291.56,"ARG_OF_PERICENTER":355.6658,"MEAN_ANOMALY":18.5941,"EPHEMERIS_TYPE":0,"CLASSIFICATION_TYPE":"U","NORAD_CAT_ID":43920,"ELEMENT_SET_NO":999,"REV_AT_EPOCH":5301,"BSTAR":0,"MEAN_MOTION_DOT":-3.53e-6,"MEAN_MOTION_DDOT":0},{"OBJECT_NAME":"HELLAS-SAT 4 & SGS-1","OBJECT_ID":"2019-007A","EPOCH":"2026-03-03T02:16:50.300832","MEAN_MOTION":1.00268786,"ECCENTRICITY":0.0003019,"INCLINATION":0.0662,"RA_OF_ASC_NODE":125.4871,"ARG_OF_PERICENTER":28.9831,"MEAN_ANOMALY":79.6035,"EPHEMERIS_TYPE":0,"CLASSIFICATION_TYPE":"U","NORAD_CAT_ID":44034,"ELEMENT_SET_NO":999,"REV_AT_EPOCH":2630,"BSTAR":0,"MEAN_MOTION_DOT":1.37e-6,"MEAN_MOTION_DDOT":0},{"OBJECT_NAME":"GSAT-31","OBJECT_ID":"2019-007B","EPOCH":"2026-03-03T02:31:38.663040","MEAN_MOTION":1.00269811,"ECCENTRICITY":0.000475,"INCLINATION":0.0417,"RA_OF_ASC_NODE":274.3468,"ARG_OF_PERICENTER":29.5825,"MEAN_ANOMALY":302.7152,"EPHEMERIS_TYPE":0,"CLASSIFICATION_TYPE":"U","NORAD_CAT_ID":44035,"ELEMENT_SET_NO":999,"REV_AT_EPOCH":2590,"BSTAR":0,"MEAN_MOTION_DOT":1.1e-6,"MEAN_MOTION_DDOT":0},{"OBJECT_NAME":"NUSANTARA SATU","OBJECT_ID":"2019-009A","EPOCH":"2026-03-02T23:22:02.201376","MEAN_MOTION":1.00271022,"ECCENTRICITY":0.0001359,"INCLINATION":0.0266,"RA_OF_ASC_NODE":133.3796,"ARG_OF_PERICENTER":324.8954,"MEAN_ANOMALY":198.9618,"EPHEMERIS_TYPE":0,"CLASSIFICATION_TYPE":"U","NORAD_CAT_ID":44048,"ELEMENT_SET_NO":999,"REV_AT_EPOCH":2570,"BSTAR":0,"MEAN_MOTION_DOT":-2.51e-6,"MEAN_MOTION_DDOT":0},{"OBJECT_NAME":"ZHONGXING-6C","OBJECT_ID":"2019-012A","EPOCH":"2026-03-02T23:17:32.630784","MEAN_MOTION":1.00270966,"ECCENTRICITY":0.0008484,"INCLINATION":0.0392,"RA_OF_ASC_NODE":55.3387,"ARG_OF_PERICENTER":333.8528,"MEAN_ANOMALY":251.3435,"EPHEMERIS_TYPE":0,"CLASSIFICATION_TYPE":"U","NORAD_CAT_ID":44067,"ELEMENT_SET_NO":999,"REV_AT_EPOCH":2567,"BSTAR":0,"MEAN_MOTION_DOT":-3.52e-6,"MEAN_MOTION_DDOT":0},{"OBJECT_NAME":"WGS 10 (USA 291)","OBJECT_ID":"2019-014A","EPOCH":"2026-03-03T04:05:39.870240","MEAN_MOTION":1.00270584,"ECCENTRICITY":4.26e-5,"INCLINATION":0.0189,"RA_OF_ASC_NODE":131.0754,"ARG_OF_PERICENTER":229.9323,"MEAN_ANOMALY":281.6262,"EPHEMERIS_TYPE":0,"CLASSIFICATION_TYPE":"U","NORAD_CAT_ID":44071,"ELEMENT_SET_NO":999,"REV_AT_EPOCH":2555,"BSTAR":0,"MEAN_MOTION_DOT":3.2e-7,"MEAN_MOTION_DDOT":0},{"OBJECT_NAME":"TIANLIAN 2-01","OBJECT_ID":"2019-017A","EPOCH":"2026-03-03T04:10:24.415680","MEAN_MOTION":1.00271438,"ECCENTRICITY":0.000338,"INCLINATION":0.2661,"RA_OF_ASC_NODE":82.2483,"ARG_OF_PERICENTER":219.6963,"MEAN_ANOMALY":358.5958,"EPHEMERIS_TYPE":0,"CLASSIFICATION_TYPE":"U","NORAD_CAT_ID":44076,"ELEMENT_SET_NO":999,"REV_AT_EPOCH":2558,"BSTAR":0,"MEAN_MOTION_DOT":-1.22e-6,"MEAN_MOTION_DDOT":0},{"OBJECT_NAME":"ARABSAT-6A","OBJECT_ID":"2019-021A","EPOCH":"2026-03-03T02:14:20.539392","MEAN_MOTION":1.00279226,"ECCENTRICITY":0.0003031,"INCLINATION":0.017,"RA_OF_ASC_NODE":13.2514,"ARG_OF_PERICENTER":322.6617,"MEAN_ANOMALY":249.0635,"EPHEMERIS_TYPE":0,"CLASSIFICATION_TYPE":"U","NORAD_CAT_ID":44186,"ELEMENT_SET_NO":999,"REV_AT_EPOCH":2509,"BSTAR":0,"MEAN_MOTION_DOT":0,"MEAN_MOTION_DDOT":0},{"OBJECT_NAME":"BEIDOU-3 IGSO-1","OBJECT_ID":"2019-023A","EPOCH":"2026-03-02T20:15:20.093184","MEAN_MOTION":1.00271201,"ECCENTRICITY":0.0026009,"INCLINATION":58.5514,"RA_OF_ASC_NODE":38.7415,"ARG_OF_PERICENTER":236.5559,"MEAN_ANOMALY":308.3602,"EPHEMERIS_TYPE":0,"CLASSIFICATION_TYPE":"U","NORAD_CAT_ID":44204,"ELEMENT_SET_NO":999,"REV_AT_EPOCH":614,"BSTAR":0,"MEAN_MOTION_DOT":-2.03e-6,"MEAN_MOTION_DDOT":0},{"OBJECT_NAME":"BEIDOU-2 G8","OBJECT_ID":"2019-027A","EPOCH":"2026-03-03T04:29:37.573152","MEAN_MOTION":1.00268078,"ECCENTRICITY":0.0009258,"INCLINATION":1.8649,"RA_OF_ASC_NODE":74.7267,"ARG_OF_PERICENTER":269.2896,"MEAN_ANOMALY":28.8322,"EPHEMERIS_TYPE":0,"CLASSIFICATION_TYPE":"U","NORAD_CAT_ID":44231,"ELEMENT_SET_NO":999,"REV_AT_EPOCH":2501,"BSTAR":0,"MEAN_MOTION_DOT":-2.63e-6,"MEAN_MOTION_DDOT":0},{"OBJECT_NAME":"YAMAL 601","OBJECT_ID":"2019-031A","EPOCH":"2026-03-03T04:02:25.180800","MEAN_MOTION":1.00271874,"ECCENTRICITY":0.0002631,"INCLINATION":0.0104,"RA_OF_ASC_NODE":133.8815,"ARG_OF_PERICENTER":207.1626,"MEAN_ANOMALY":289.4733,"EPHEMERIS_TYPE":0,"CLASSIFICATION_TYPE":"U","NORAD_CAT_ID":44307,"ELEMENT_SET_NO":999,"REV_AT_EPOCH":2485,"BSTAR":0,"MEAN_MOTION_DOT":1.04e-6,"MEAN_MOTION_DDOT":0}]
