ES'HAIL 2               
1 43700U 18090A   26062.13447653  .00000128  00000+0  00000+0 0  9990
2 43700   0.0228 237.9498 0002568 135.7171 221.4238  1.00270941 26617
GEO-KOMPSAT-2A          
1 43823U 18100A   26060.97179095 -.00000362  00000+0  00000+0 0  9991
2 43823   0.0180  67.6811 0001336 333.4250 236.7399  1.00270368 26557
GSAT-11                 
1 43824U 18100B   26062.05372396 -.00000093  00000+0  00000+0 0  9993
2 43824   0.0891 271.2042 0004856 143.6178 199.3202  1.00271634 26415
GSAT-7A                 
1 43864U 18105A   26062.09970664  .00000011  00000+0  00000+0 0  9997
2 43864   0.1022 277.3886 0002058  50.3496 291.7517  1.00270676 26385
COSMOS 2533             
1 43867U 18107A   26061.18933596 -.00000055  00000+0  00000+0 0  9993
2 43867   0.0195 114.5866 0000630 341.1778 202.3414  1.00268392 26360
TJS-3                   
1 43874U 18110A   26061.10603822 -.00000229  00000+0  00000+0 0  9996
2 43874   2.2688  81.8170 0016635 344.8419 217.6350  1.00349757 26348
ZHONGXING-2D            
1 43920U 19001A   26062.04167024 -.00000353  00000+0  00000+0 0  9999
2 43920   0.0554 291.5600 0001270 355.6658  18.5941  1.00272350 53012
HELLAS-SAT 4 & SGS-1    
1 44034U 19007A   26062.09502663  .00000137  00000+0  00000+0 0  9998
2 44034   0.0662 125.4871 0003019  28.9831  79.6035  1.00268786 26302
GSAT-31                 
1 44035U 19007B   26062.10530860  .00000110  00000+0  00000+0 0  9992
2 44035   0.0417 274.3468 0004750  29.5825 302.7152  1.00269811 25905
NUSANTARA SATU          
1 44048U 19009A   26061.97363659 -.00000251  00000+0  00000+0 0  9999
2 44048   0.0266 133.3796 0001359 324.8954 198.9618  1.00271022 25702
ZHONGXING-6C            
1 44067U 19012A   26061.97051656 -.00000352  00000+0  00000+0 0  9997
2 44067   0.0392  55.3387 0008484 333.8528 251.3435  1.00270966 25678
WGS 10 (USA 291)        
1 44071U 19014A   26062.17060035  .00000032  00000+0  00000+0 0  9992
2 44071   0.0189 131.0754 0000426 229.9323 281.6262  1.00270584 25550
TIANLIAN 2-01           
1 44076U 19017A   26062.17389370 -.00000122  00000+0  00000+0 0  9997
2 44076   0.2661  82.2483 0003380 219.6963 358.5958  1.00271438 25584
ARABSAT-6A              
1 44186U 19021A   26062.09329328  .00000000  00000+0  00000+0 0  9996
2 44186   0.0170  13.2514 0003031 322.6617 249.0635  1.00279226 25097
BEIDOU-3 IGSO-1         
1 44204U 19023A   26061.84398256 -.00000203  00000+0  00000+0 0  9993
2 44204  58.5514  38.7415 0026009 236.5559 308.3602  1.00271201  6141
BEIDOU-2 G8             
1 44231U 19027A   26062.18724043 -.00000263  00000+0  00000+0 0  9998
2 44231   1.8649  74.7267 0009258 269.2896  28.8322  1.00268078 25018
YAMAL 601               
1 44307U 19031A   26062.16834700  .00000104  00000+0  00000+0 0  9990
2 44307   0.0104 133.8815 0002631 207.1626 289.4733  1.00271874 24855
